LEMUR-2-ALISIA          
1 62706U 25009DB  26184.98049290  .00011081  00000+0  82670-3 0  9995
2 62706  97.6946 267.0354 0003229 165.4951 194.6367 15.03025127102687
LEMUR-2-ROUNDTRIPPER    
1 62711U 25009DG  26185.19310209  .00012398  00000+0  89883-3 0  9991
2 62711  97.7224 267.8497 0004694  90.6422 269.5341 15.04075178 80184
LEMUR-2-MYNAMEISJEFF    
1 62712U 25009DH  26184.99194340  .00011591  00000+0  84106-3 0  9992
2 62712  97.7272 268.0400 0003633 124.4759 235.6810 15.04062427 80151
LEMUR-2-LEIA-PHILIP     
1 63246U 25052AN  26184.64276954  .00002115  00000+0  18702-3 0  9998
2 63246  97.6813  76.3151 0004516 151.6923 208.4545 14.97360954 71131
LEMUR-2-LIA-MARTIN      
1 63248U 25052AQ  26184.70884529  .00006214  00000+0  53174-3 0  9996
2 63248  97.6860  76.8794 0004800 119.6132 240.5570 14.97939211 71150
LEMUR-2-DELOITTE-1      
1 63259U 25052BB  26185.15513015  .00004765  00000+0  41133-3 0  9998
2 63259  97.6890  77.6505 0002376  66.2642 293.8829 14.97720542 71235
LEMUR-2-EMERSONROSE     
1 63261U 25052BD  26184.64640834  .00005418  00000+0  44947-3 0  9996
2 63261  97.6866  77.7376 0002554  76.0925 284.0582 14.99205277 71209
LEMUR-2-MARACHE-FRAN    
1 63262U 25052BE  26185.14396254  .00006216  00000+0  50108-3 0  9990
2 63262  97.6881  78.5808 0004349 305.5849  54.4969 15.00250703 71301
LEMUR-2-THEFALCONER     
1 63264U 25052BG  26184.98357027  .00005402  00000+0  46822-3 0  9992
2 63264  97.6840  77.0825 0001078  27.2576 332.8702 14.97503207 71204
LEMUR-2-UNTITLED-SC     
1 63351U 25061A   26185.21188610  .00004859  00000+0  27340-3 0  9995
2 63351  97.5648 160.4510 0018039 201.2225 158.8260 15.13589963 70165
LEMUR-2-ESPERANZA       
1 63352U 25061B   26185.18798839  .00004192  00000+0  23584-3 0  9998
2 63352  97.5656 160.5246 0017660 200.2292 159.8241 15.13682802 70160
LEMUR-2-KREMPEL-BRO2    
1 63353U 25061C   26185.21005346  .00004924  00000+0  27284-3 0  9991
2 63353  97.5703 161.1018 0018810 192.8494 167.2260 15.14121203 70186
LEMUR-2-THERMORAPTOR    
1 63354U 25061D   26184.72862743  .00004033  00000+0  22370-3 0  9991
2 63354  97.5707 160.7019 0018472 193.3231 166.7515 15.14199838 70115
LEMUR-2-NEUROSPICY      
1 63355U 25061E   26184.43472049  .00003919  00000+0  21700-3 0  9994
2 63355  97.5631 160.0231 0016226 197.3500 162.7179 15.14312636 70079
LEMUR-2-TILLINFINITY    
1 63356U 25061F   26184.99214438  .00004362  00000+0  23699-3 0  9994
2 63356  97.5619 160.8795 0017849 183.5637 176.5471 15.14903881 70187
LEMUR-2-KREMPEL-BRO1    
1 63357U 25061G   26185.16595244  .00004647  00000+0  25356-3 0  9990
2 63357  97.5620 160.9635 0018501 184.4809 175.6260 15.14710926 70206
LEMUR-2-LANGER2SPACE    
1 63358U 25061H   26184.86548350  .00004469  00000+0  24632-3 0  9991
2 63358  97.5625 160.4721 0016189 194.0267 166.0517 15.14403697 70144
LEMUR-2-BALTO           
1 63395U 25052BH  26185.12860914  .00007207  00000+0  57967-3 0  9995
2 63395  97.6925  78.5432 0005958   9.8348 350.2991 15.00276530 71303
LEMUR-2-KRISH           
1 64561U 25135AK  26185.26094819  .00006894  00000+0  61376-3 0  9991
2 64561  97.7758 300.0210 0001541 106.3068 253.8323 14.96365624 56472
LEMUR-2-HUBBLE-4        
1 64565U 25135AP  26185.28873533  .00001603  00000+0  15707-3 0  9995
2 64565  97.7712 298.9935 0001712 196.0448 164.0718 14.93661648 56421
LEMUR-2-SEJONG-2        
1 64586U 25135BL  26185.28540286  .00005552  00000+0  48928-3 0  9992
2 64586  97.7716 300.1914 0002851 268.1939  91.8956 14.96848960 56509
LEMUR-2-HUBBLE-5        
1 64840U 25135BT  26185.03354968  .00001446  00000+0  14039-3 0  9992
2 64840  97.7732 299.3984 0004097 285.4588  74.6180 14.94187371 56421
LEMUR-2-KARENDARRELL    
1 64841U 25135BU  26185.25957144  .00010926  00000+0  87289-3 0  9992
2 64841  97.7700 301.4418 0011308 140.0466 220.1592 15.00374837 56572
LEMUR-2-LUCILLE-ROSE    
1 65403U 25135BV  26185.03291944  .00009314  00000+0  74466-3 0  9994
2 65403  97.7731 301.2490 0013426 223.7635 136.2526 15.00372162 51162
LEMUR-2-AFFIE-WAUWIE    
1 66295U 25248C   26185.25583703  .00030983  00000+0  11226-2 0  9990
2 66295  45.3931  22.4672 0008310 194.1566 165.9091 15.27883784 37208
LEMUR-2-DEANANDMAEVE    
1 66678U 25276N   26184.18188387  .00006959  00000+0  32677-3 0  9996
2 66678  97.4206 257.3935 0004383 311.1776  48.9081 15.19930878 32849
LEMUR-2-STAS-GORBUK     
1 66686U 25276W   26184.92458874  .00006939  00000+0  32937-3 0  9995
2 66686  97.4235 258.1773 0003602 306.1339  53.9562 15.19561603 32959
LEMUR-2-TEODOR          
1 66768U 25276DG  26185.15311270  .00007860  00000+0  35496-3 0  9997
2 66768  97.4143 258.6599 0002347  99.4343 260.7159 15.21240000 33028
LEMUR-2-LAILA           
1 66776U 25276DQ  26185.19031487  .00007468  00000+0  33520-3 0  9999
2 66776  97.4166 258.8280 0002837 111.0448 249.1092 15.21465807 33034
