OBJECT_NAME,OBJECT_ID,EPOCH,MEAN_MOTION,ECCENTRICITY,INCLINATION,RA_OF_ASC_NODE,ARG_OF_PERICENTER,MEAN_ANOMALY,EPHEMERIS_TYPE,CLASSIFICATION_TYPE,NORAD_CAT_ID,ELEMENT_SET_NO,REV_AT_EPOCH,BSTAR,MEAN_MOTION_DOT,MEAN_MOTION_DDOT
LEMUR-2-ALISIA,2025-009DB,2026-07-03T23:31:54.586560,15.03025127,.00032297,97.6946,267.0354,165.4951,194.6367,0,U,62706,999,10268,.82669778E-3,.11081E-3,0
LEMUR-2-ROUNDTRIPPER,2025-009DG,2026-07-04T04:38:04.020576,15.04075178,.00046945,97.7224,267.8497,90.6422,269.5341,0,U,62711,999,8018,.89883264E-3,.12398E-3,0
LEMUR-2-MYNAMEISJEFF,2025-009DH,2026-07-03T23:48:23.909760,15.04062427,.00036335,97.7272,268.0400,124.4759,235.6810,0,U,62712,999,8015,.84105842E-3,.11591E-3,0
LEMUR-2-LEIA-PHILIP,2025-052AN,2026-07-03T15:25:35.288256,14.97360954,.00045168,97.6813,76.3151,151.6923,208.4545,0,U,63246,999,7113,.18702476E-3,.2115E-4,0
LEMUR-2-LIA-MARTIN,2025-052AQ,2026-07-03T17:00:44.233056,14.97939211,.00048005,97.6860,76.8794,119.6132,240.5570,0,U,63248,999,7115,.53173764E-3,.6214E-4,0
LEMUR-2-DELOITTE-1,2025-052BB,2026-07-04T03:43:23.244960,14.97720542,.0002376,97.6890,77.6505,66.2642,293.8829,0,U,63259,999,7123,.41132516E-3,.4765E-4,0
LEMUR-2-EMERSONROSE,2025-052BD,2026-07-03T15:30:49.680576,14.99205277,.00025544,97.6866,77.7376,76.0925,284.0582,0,U,63261,999,7120,.44946993E-3,.5418E-4,0
LEMUR-2-MARACHE-FRAN,2025-052BE,2026-07-04T03:27:18.363456,15.00250703,.00043495,97.6881,78.5808,305.5849,54.4969,0,U,63262,999,7130,.50107517E-3,.6216E-4,0
LEMUR-2-THEFALCONER,2025-052BG,2026-07-03T23:36:20.471328,14.97503207,.00010786,97.6840,77.0825,27.2576,332.8702,0,U,63264,999,7120,.4682205E-3,.5402E-4,0
LEMUR-2-UNTITLED-SC,2025-061A,2026-07-04T05:05:06.959040,15.13589963,.00180396,97.5648,160.4510,201.2225,158.8260,0,U,63351,999,7016,.27339716E-3,.4859E-4,0
LEMUR-2-ESPERANZA,2025-061B,2026-07-04T04:30:42.196896,15.13682802,.00176605,97.5656,160.5246,200.2292,159.8241,0,U,63352,999,7016,.23583691E-3,.4192E-4,0
LEMUR-2-KREMPEL-BRO2,2025-061C,2026-07-04T05:02:28.618944,15.14121203,.00188103,97.5703,161.1018,192.8494,167.2260,0,U,63353,999,7018,.27284095E-3,.4924E-4,0
LEMUR-2-THERMORAPTOR,2025-061D,2026-07-03T17:29:13.409952,15.14199838,.0018472,97.5707,160.7019,193.3231,166.7515,0,U,63354,999,7011,.22370006E-3,.4033E-4,0
LEMUR-2-NEUROSPICY,2025-061E,2026-07-03T10:25:59.850336,15.14312636,.00162262,97.5631,160.0231,197.3500,162.7179,0,U,63355,999,7007,.2170009E-3,.3919E-4,0
LEMUR-2-TILLINFINITY,2025-061F,2026-07-03T23:48:41.274432,15.14903881,.00178492,97.5619,160.8795,183.5637,176.5471,0,U,63356,999,7018,.2369936E-3,.4362E-4,0
LEMUR-2-KREMPEL-BRO1,2025-061G,2026-07-04T03:58:58.290816,15.14710926,.00185013,97.5620,160.9635,184.4809,175.6260,0,U,63357,999,7020,.25355911E-3,.4647E-4,0
LEMUR-2-LANGER2SPACE,2025-061H,2026-07-03T20:46:17.774400,15.14403697,.00161898,97.5625,160.4721,194.0267,166.0517,0,U,63358,999,7014,.24632486E-3,.4469E-4,0
LEMUR-2-BALTO,2025-052BH,2026-07-04T03:05:11.829696,15.00276530,.00059586,97.6925,78.5432,9.8348,350.2991,0,U,63395,999,7130,.57967172E-3,.7207E-4,0
LEMUR-2-KRISH,2025-135AK,2026-07-04T06:15:45.923616,14.96365624,.00015414,97.7758,300.0210,106.3068,253.8323,0,U,64561,999,5647,.61375791E-3,.6894E-4,0
LEMUR-2-HUBBLE-4,2025-135AP,2026-07-04T06:55:46.732512,14.93661648,.00017128,97.7712,298.9935,196.0448,164.0718,0,U,64565,999,5642,.15707367E-3,.1603E-4,0
LEMUR-2-SEJONG-2,2025-135BL,2026-07-04T06:50:58.807104,14.96848960,.00028516,97.7716,300.1914,268.1939,91.8956,0,U,64586,999,5650,.48928494E-3,.5552E-4,0
LEMUR-2-HUBBLE-5,2025-135BT,2026-07-04T00:48:18.692352,14.94187371,.00040974,97.7732,299.3984,285.4588,74.6180,0,U,64840,999,5642,.14039279E-3,.1446E-4,0
LEMUR-2-KARENDARRELL,2025-135BU,2026-07-04T06:13:46.972416,15.00374837,.00113085,97.7700,301.4418,140.0466,220.1592,0,U,64841,999,5657,.87289329E-3,.10926E-3,0
LEMUR-2-LUCILLE-ROSE,2025-135BV,2026-07-04T00:47:24.239616,15.00372162,.0013426,97.7731,301.2490,223.7635,136.2526,0,U,65403,999,5116,.74465543E-3,.9314E-4,0
LEMUR-2-AFFIE-WAUWIE,2025-248C,2026-07-04T06:08:24.319392,15.27883784,.00083106,45.3931,22.4672,194.1566,165.9091,0,U,66295,999,3720,.1122594E-2,.30983E-3,0
LEMUR-2-DEANANDMAEVE,2025-276N,2026-07-03T04:21:54.766368,15.19930878,.00043833,97.4206,257.3935,311.1776,48.9081,0,U,66678,999,3284,.32676553E-3,.6959E-4,0
LEMUR-2-STAS-GORBUK,2025-276W,2026-07-03T22:11:24.467136,15.19561603,.00036026,97.4235,258.1773,306.1339,53.9562,0,U,66686,999,3295,.32936955E-3,.6939E-4,0
LEMUR-2-TEODOR,2025-276DG,2026-07-04T03:40:28.937280,15.21240000,.0002347,97.4143,258.6599,99.4343,260.7159,0,U,66768,999,3302,.35496327E-3,.786E-4,0
LEMUR-2-LAILA,2025-276DQ,2026-07-04T04:34:03.204768,15.21465807,.00028377,97.4166,258.8280,111.0448,249.1092,0,U,66776,999,3303,.33519732E-3,.7468E-4,0
